GLOBALSTAR M024         
1 25883U 99043A   25322.91181928 -.00000121  00000+0 -20045-2 0  9992
2 25883  52.0055  31.5065 0001042   1.9806 168.9936 11.10169470132048
GLOBALSTAR M027         
1 25884U 99043B   25323.09117395 -.00000123  00000+0 -22585-2 0  9993
2 25884  52.0182 113.4721 0020738 239.4495 120.4251 11.04372986158350
GLOBALSTAR M054         
1 25885U 99043C   25322.97964720 -.00000029  00000+0  10708-2 0  9990
2 25885  52.0121 215.0460 0006001  79.6169 293.8311 11.39223675136695
GLOBALSTAR M053         
1 25886U 99043D   25323.31108837 -.00000035  00000+0  98063-3 0  9997
2 25886  51.9942 169.9533 0003516   8.6369 162.3369 11.27668741136940
GLOBALSTAR M058         
1 25907U 99049A   25322.94888117 -.00000064  00000+0  27265-3 0  9999
2 25907  51.9960  55.9154 0002061 191.4337 168.6451 11.93204757560013
GLOBALSTAR M050         
1 25908U 99049B   25323.03983010 -.00000163  00000+0 -84906-3 0  9995
2 25908  52.0009  51.7796 0008545 342.9368 188.7381 12.07461008166899
GLOBALSTAR M033         
1 25909U 99049C   25323.15856357 -.00000045  00000+0  45189-3 0  9990
2 25909  51.9917 272.5834 0013420 223.6241 136.3546 12.20293337554666
GLOBALSTAR M055         
1 25910U 99049D   25323.13381395 -.00000073  00000+0  18130-3 0  9992
2 25910  52.0024 275.8561 0007402  90.0890 270.0810 12.29436047187344
